start=new Date('2023-04-21T00:00:00.000Z').valueOf();
sats=[{"BSTAR":"0.00321000000000","MEAN_ELEMENT_THEORY":"SGP4","MEAN_MOTION_DOT":"0.00048039","DECAY_DATE":null,"EPHEMERIS_TYPE":"0","CLASSIFICATION_TYPE":"U","NORAD_CAT_ID":"47676","MEAN_ANOMALY":"266.9570","ELEMENT_SET_NO":"999","INCLINATION":"53.0554","PERIAPSIS":"546.091","REF_FRAME":"TEME","TLE_LINE2":"2 47676  53.0554 355.9199 0001007  93.1534 266.9570 15.06538786122838","ECCENTRICITY":"0.00010070","LAUNCH_DATE":"2021-02-16","SEMIMAJOR_AXIS":"6924.923","PERIOD":"95.583","CENTER_NAME":"EARTH","SITE":"AFETR","RCS_SIZE":"LARGE","OBJECT_NAME":"STARLINK-2083","APOAPSIS":"547.486","EPOCH":"2023-04-20T02:04:14.394144","COUNTRY_CODE":"US","TIME_SYSTEM":"UTC","REV_AT_EPOCH":"12283","ARG_OF_PERICENTER":"93.1534","RA_OF_ASC_NODE":"355.9199","MEAN_MOTION_DDOT":"0.0000000000000","TLE_LINE1":"1 47676U 21012BJ  23110.08627771  .00048039  00000-0  32100-2 0  9993","FILE":"3890827","GP_ID":"230426816","MEAN_MOTION":"15.06538786","OBJECT_TYPE":"PAYLOAD","OBJECT_ID":"2021-012BJ"},{"EPHEMERIS_TYPE":"0","BSTAR":"0.00027095000000","MEAN_ELEMENT_THEORY":"SGP4","MEAN_MOTION_DOT":"0.00003756","DECAY_DATE":null,"MEAN_ANOMALY":"267.2866","ELEMENT_SET_NO":"999","INCLINATION":"53.0519","CLASSIFICATION_TYPE":"U","NORAD_CAT_ID":"47677","ECCENTRICITY":"0.00013080","REF_FRAME":"TEME","PERIAPSIS":"546.313","TLE_LINE2":"2 47677  53.0519 122.9681 0001308  92.8273 267.2866 15.06398160121121","SEMIMAJOR_AXIS":"6925.354","PERIOD":"95.592","CENTER_NAME":"EARTH","LAUNCH_DATE":"2021-02-16","OBJECT_NAME":"STARLINK-2090","SITE":"AFETR","RCS_SIZE":"LARGE","COUNTRY_CODE":"US","EPOCH":"2023-04-20T17:46:22.585152","APOAPSIS":"548.125","REV_AT_EPOCH":"12112","ARG_OF_PERICENTER":"92.8273","RA_OF_ASC_NODE":"122.9681","TIME_SYSTEM":"UTC","FILE":"3891109","GP_ID":"230459091","MEAN_MOTION":"15.06398160","OBJECT_TYPE":"PAYLOAD","OBJECT_ID":"2021-012BK","MEAN_MOTION_DDOT":"0.0000000000000","TLE_LINE1":"1 47677U 21012BK  23110.74053918  .00003756  00000-0  27095-3 0  9998"},{"ELEMENT_SET_NO":"999","INCLINATION":"53.0529","MEAN_ANOMALY":"263.0011","NORAD_CAT_ID":"47679","CLASSIFICATION_TYPE":"U","EPHEMERIS_TYPE":"0","MEAN_MOTION_DOT":"0.00000418","DECAY_DATE":null,"BSTAR":"0.00004697500000","MEAN_ELEMENT_THEORY":"SGP4","CENTER_NAME":"EARTH","SEMIMAJOR_AXIS":"6925.356","PERIOD":"95.592","LAUNCH_DATE":"2021-02-16","ECCENTRICITY":"0.00016470","PERIAPSIS":"546.081","REF_FRAME":"TEME","TLE_LINE2":"2 47679  53.0529 122.8435 0001647  97.1166 263.0011 15.06397515121146","COUNTRY_CODE":"US","APOAPSIS":"548.362","EPOCH":"2023-04-20T18:28:50.112480","OBJECT_NAME":"STARLINK-2095","RCS_SIZE":"LARGE","SITE":"AFETR","MEAN_MOTION":"15.06397515","OBJECT_ID":"2021-012BM","OBJECT_TYPE":"PAYLOAD","FILE":"3891109","GP_ID":"230459341","MEAN_MOTION_DDOT":"0.0000000000000","TLE_LINE1":"1 47679U 21012BM  23110.77002445  .00000418  00000-0  46975-4 0  9993","ARG_OF_PERICENTER":"97.1166","RA_OF_ASC_NODE":"122.8435","REV_AT_EPOCH":"12114","TIME_SYSTEM":"UTC"},{"APOAPSIS":"548.320","EPOCH":"2023-04-20T19:30:35.958816","COUNTRY_CODE":"US","SITE":"AFETR","RCS_SIZE":"LARGE","OBJECT_NAME":"STARLINK-2068","MEAN_MOTION_DDOT":"0.0000000000000","TLE_LINE1":"1 47722U 21017A   23110.81291619  .00029877  00000-0  20211-2 0  9998","FILE":"3891109","GP_ID":"230460595","MEAN_MOTION":"15.06309812","OBJECT_TYPE":"PAYLOAD","OBJECT_ID":"2021-017A","TIME_SYSTEM":"UTC","REV_AT_EPOCH":"11914","ARG_OF_PERICENTER":"79.2123","RA_OF_ASC_NODE":"247.8943","CLASSIFICATION_TYPE":"U","NORAD_CAT_ID":"47722","MEAN_ANOMALY":"280.9001","ELEMENT_SET_NO":"999","INCLINATION":"53.0543","MEAN_ELEMENT_THEORY":"SGP4","BSTAR":"0.00202110000000","MEAN_MOTION_DOT":"0.00029877","DECAY_DATE":null,"EPHEMERIS_TYPE":"0","LAUNCH_DATE":"2021-03-04","SEMIMAJOR_AXIS":"6925.625","PERIOD":"95.598","CENTER_NAME":"EARTH","REF_FRAME":"TEME","PERIAPSIS":"546.660","TLE_LINE2":"2 47722  53.0543 247.8943 0001198  79.2123 280.9001 15.06309812119145","ECCENTRICITY":"0.00011980"},{"OBJECT_NAME":"STARLINK-2107","SITE":"AFETR","RCS_SIZE":"LARGE","COUNTRY_CODE":"US","EPOCH":"2023-04-20T21:17:26.110464","APOAPSIS":"547.970","REV_AT_EPOCH":"12003","ARG_OF_PERICENTER":"95.3074","RA_OF_ASC_NODE":"182.3153","TIME_SYSTEM":"UTC","FILE":"3891109","GP_ID":"230460846","MEAN_MOTION":"15.06395374","OBJECT_TYPE":"PAYLOAD","OBJECT_ID":"2021-017B","MEAN_MOTION_DDOT":"0.0000000000000","TLE_LINE1":"1 47723U 21017B   23110.88710776  .00023355  00000-0  15818-2 0  9998","EPHEMERIS_TYPE":"0","MEAN_ELEMENT_THEORY":"SGP4","BSTAR":"0.00158180000000","MEAN_MOTION_DOT":"0.00023355","DECAY_DATE":null,"MEAN_ANOMALY":"264.8038","ELEMENT_SET_NO":"999","INCLINATION":"53.0542","CLASSIFICATION_TYPE":"U","NORAD_CAT_ID":"47723","ECCENTRICITY":"0.00010720","REF_FRAME":"TEME","PERIAPSIS":"546.485","TLE_LINE2":"2 47723  53.0542 182.3153 0001072  95.3074 264.8038 15.06395374120035","SEMIMAJOR_AXIS":"6925.363","PERIOD":"95.592","CENTER_NAME":"EARTH","LAUNCH_DATE":"2021-03-04"},{"EPOCH":"2023-04-20T22:10:31.725984","APOAPSIS":"547.888","COUNTRY_CODE":"US","SITE":"AFETR","RCS_SIZE":"LARGE","OBJECT_NAME":"STARLINK-2116","MEAN_MOTION_DDOT":"0.0000000000000","TLE_LINE1":"1 47724U 21017C   23110.92397831  .00024676  00000-0  16703-2 0  9998","FILE":"3891109","GP_ID":"230459594","MEAN_MOTION":"15.06386143","OBJECT_ID":"2021-017C","OBJECT_TYPE":"PAYLOAD","TIME_SYSTEM":"UTC","REV_AT_EPOCH":"12000","ARG_OF_PERICENTER":"71.9431","RA_OF_ASC_NODE":"182.1564","CLASSIFICATION_TYPE":"U","NORAD_CAT_ID":"47724","MEAN_ANOMALY":"288.1657","ELEMENT_SET_NO":"999","INCLINATION":"53.0518","MEAN_ELEMENT_THEORY":"SGP4","BSTAR":"0.00167030000000","MEAN_MOTION_DOT":"0.00024676","DECAY_DATE":null,"EPHEMERIS_TYPE":"0","LAUNCH_DATE":"2021-03-04","SEMIMAJOR_AXIS":"6925.391","PERIOD":"95.593","CENTER_NAME":"EARTH","PERIAPSIS":"546.624","REF_FRAME":"TEME","TLE_LINE2":"2 47724  53.0518 182.1564 0000913  71.9431 288.1657 15.06386143120000","ECCENTRICITY":"0.00009130"},{"LAUNCH_DATE":"2021-03-04","CENTER_NAME":"EARTH","SEMIMAJOR_AXIS":"6925.515","PERIOD":"95.596","REF_FRAME":"TEME","PERIAPSIS":"546.526","TLE_LINE2":"2 47725  53.0540 253.1931 0001233  81.4985 278.6143 15.06345624119000","ECCENTRICITY":"0.00012330","NORAD_CAT_ID":"47725","CLASSIFICATION_TYPE":"U","ELEMENT_SET_NO":"999","INCLINATION":"53.0540","MEAN_ANOMALY":"278.6143","MEAN_MOTION_DOT":"0.00020130","DECAY_DATE":null,"BSTAR":"0.00136840000000","MEAN_ELEMENT_THEORY":"SGP4","EPHEMERIS_TYPE":"0","MEAN_MOTION_DDOT":"0.0000000000000","TLE_LINE1":"1 47725U 21017D   23110.69268447  .00020130  00000-0  13684-2 0  9999","MEAN_MOTION":"15.06345624","OBJECT_ID":"2021-017D","OBJECT_TYPE":"PAYLOAD","FILE":"3891109","GP_ID":"230459844","TIME_SYSTEM":"UTC","ARG_OF_PERICENTER":"81.4985","RA_OF_ASC_NODE":"253.1931","REV_AT_EPOCH":"11900","APOAPSIS":"548.234","EPOCH":"2023-04-20T16:37:27.938208","COUNTRY_CODE":"US","RCS_SIZE":"LARGE","SITE":"AFETR","OBJECT_NAME":"STARLINK-2125"},{"EPHEMERIS_TYPE":"0","BSTAR":"0.00119310000000","MEAN_ELEMENT_THEORY":"SGP4","DECAY_DATE":null,"MEAN_MOTION_DOT":"0.00017505","MEAN_ANOMALY":"286.5182","INCLINATION":"53.0538","ELEMENT_SET_NO":"999","CLASSIFICATION_TYPE":"U","NORAD_CAT_ID":"47726","ECCENTRICITY":"0.00004260","TLE_LINE2":"2 47726  53.0538 253.2543 0000426  73.5854 286.5182 15.06338994118998","PERIAPSIS":"547.106","REF_FRAME":"TEME","PERIOD":"95.596","SEMIMAJOR_AXIS":"6925.536","CENTER_NAME":"EARTH","LAUNCH_DATE":"2021-03-04","OBJECT_NAME":"STARLINK-2126","SITE":"AFETR","RCS_SIZE":"LARGE","COUNTRY_CODE":"US","EPOCH":"2023-04-20T16:16:08.129568","APOAPSIS":"547.696","REV_AT_EPOCH":"11899","RA_OF_ASC_NODE":"253.2543","ARG_OF_PERICENTER":"73.5854","TIME_SYSTEM":"UTC","GP_ID":"230460096","FILE":"3891109","OBJECT_TYPE":"PAYLOAD","OBJECT_ID":"2021-017E","MEAN_MOTION":"15.06338994","TLE_LINE1":"1 47726U 21017E   23110.67787187  .00017505  00000-0  11931-2 0  9990","MEAN_MOTION_DDOT":"0.0000000000000"},{"EPOCH":"2023-04-20T21:28:00.124896","APOAPSIS":"548.272","COUNTRY_CODE":"US","SITE":"AFETR","RCS_SIZE":"LARGE","OBJECT_NAME":"STARLINK-2129","TLE_LINE1":"1 47727U 21017F   23110.89444589  .00031768  00000-0  21403-2 0  9993","MEAN_MOTION_DDOT":"0.0000000000000","GP_ID":"230460347","FILE":"3891109","OBJECT_ID":"2021-017F","OBJECT_TYPE":"PAYLOAD","MEAN_MOTION":"15.06429808","TIME_SYSTEM":"UTC","REV_AT_EPOCH":"12018","RA_OF_ASC_NODE":"172.2884","ARG_OF_PERICENTER":"99.6290","CLASSIFICATION_TYPE":"U","NORAD_CAT_ID":"47727","MEAN_ANOMALY":"260.4887","INCLINATION":"53.0508","ELEMENT_SET_NO":"999","BSTAR":"0.00214030000000","MEAN_ELEMENT_THEORY":"SGP4","DECAY_DATE":null,"MEAN_MOTION_DOT":"0.00031768","EPHEMERIS_TYPE":"0","LAUNCH_DATE":"2021-03-04","PERIOD":"95.590","SEMIMAJOR_AXIS":"6925.257","CENTER_NAME":"EARTH","TLE_LINE2":"2 47727  53.0508 172.2884 0001660  99.6290 260.4887 15.06429808120180","REF_FRAME":"TEME","PERIAPSIS":"545.973","ECCENTRICITY":"0.00016600"},{"OBJECT_NAME":"STARLINK-2131","SITE":"AFETR","RCS_SIZE":"LARGE","COUNTRY_CODE":"US","EPOCH":"2023-04-20T15:39:02.627136","APOAPSIS":"549.134","REV_AT_EPOCH":"11905","RA_OF_ASC_NODE":"253.3754","ARG_OF_PERICENTER":"80.1187","TIME_SYSTEM":"UTC","GP_ID":"230459095","FILE":"3891109","OBJECT_TYPE":"PAYLOAD","OBJECT_ID":"2021-017G","MEAN_MOTION":"15.06383887","TLE_LINE1":"1 47728U 21017G   23110.65211374  .00018031  00000-0  12268-2 0  9999","MEAN_MOTION_DDOT":"0.0000000000000","EPHEMERIS_TYPE":"0","BSTAR":"0.00122680000000","MEAN_ELEMENT_THEORY":"SGP4","DECAY_DATE":null,"MEAN_MOTION_DOT":"0.00018031","MEAN_ANOMALY":"280.0107","INCLINATION":"53.0544","ELEMENT_SET_NO":"999","CLASSIFICATION_TYPE":"U","NORAD_CAT_ID":"47728","ECCENTRICITY":"0.00027020","TLE_LINE2":"2 47728  53.0544 253.3754 0002702  80.1187 280.0107 15.06383887119059","PERIAPSIS":"545.392","REF_FRAME":"TEME","PERIOD":"95.593","SEMIMAJOR_AXIS":"6925.398","CENTER_NAME":"EARTH","LAUNCH_DATE":"2021-03-04"}];
